{
    "week": 287,
    "satellites": [
        {
            "Name": "GSAT0101 (GALILEO-PFM)",
            "Line1": "1 37846U 11060A   24280.00122265 -.00000085  00000+0  00000+0 0  9992",
            "Line2": "2 37846  57.1244 358.5401 0000445 310.0853  49.9652  1.70475886 80696",
            "SatelliteNumber": "37846",
            "Classification": "U",
            "LaunchYear": "11",
            "LaunchNumber": "060",
            "PieceOfLaunch": "A",
            "EpochYear": "24",
            "EpochDay": 280.00122265,
            "FirstDerivativeMeanMotion": -8.5e-07,
            "SecondDerivativeMeanMotion": "00000+0",
            "BSTAR": "00000+0",
            "SetNumber": "999",
            "Inclination": 57.1244,
            "RAAN": 358.5401,
            "Eccentricity": 4.45e-05,
            "ArgumentOfPerigee": 310.0853,
            "MeanAnomaly": 49.9652,
            "MeanMotion": 1.70475886,
            "RevolutionNumber": "8069"
        },
        {
            "Name": "GSAT0102 (GALILEO-FM2)",
            "Line1": "1 37847U 11060B   24278.16809556 -.00000092  00000+0  00000+0 0  9990",
            "Line2": "2 37847  57.1248 358.5897 0001696 308.3059  52.2065  1.70475469 80666",
            "SatelliteNumber": "37847",
            "Classification": "U",
            "LaunchYear": "11",
            "LaunchNumber": "060",
            "PieceOfLaunch": "B",
            "EpochYear": "24",
            "EpochDay": 278.16809556,
            "FirstDerivativeMeanMotion": -9.2e-07,
            "SecondDerivativeMeanMotion": "00000+0",
            "BSTAR": "00000+0",
            "SetNumber": "999",
            "Inclination": 57.1248,
            "RAAN": 358.5897,
            "Eccentricity": 0.0001696,
            "ArgumentOfPerigee": 308.3059,
            "MeanAnomaly": 52.2065,
            "MeanMotion": 1.70475469,
            "RevolutionNumber": "8066"
        },
        {
            "Name": "GSAT0103 (GALILEO-FM3)",
            "Line1": "1 38857U 12055A   24278.86753048  .00000057  00000+0  00000+0 0  9998",
            "Line2": "2 38857  55.4551 118.5896 0001998 266.7099  93.3558  1.70473743 74574",
            "SatelliteNumber": "38857",
            "Classification": "U",
            "LaunchYear": "12",
            "LaunchNumber": "055",
            "PieceOfLaunch": "A",
            "EpochYear": "24",
            "EpochDay": 278.86753048,
            "FirstDerivativeMeanMotion": 5.7e-07,
            "SecondDerivativeMeanMotion": "00000+0",
            "BSTAR": "00000+0",
            "SetNumber": "999",
            "Inclination": 55.4551,
            "RAAN": 118.5896,
            "Eccentricity": 0.0001998,
            "ArgumentOfPerigee": 266.7099,
            "MeanAnomaly": 93.3558,
            "MeanMotion": 1.70473743,
            "RevolutionNumber": "7457"
        },
        {
            "Name": "GSAT0201 (GALILEO 5)",
            "Line1": "1 40128U 14050A   24277.96363192 -.00000050  00000+0  00000+0 0  9990",
            "Line2": "2 40128  49.5478 298.6849 1613849 155.5076 213.1118  1.85519659 66795",
            "SatelliteNumber": "40128",
            "Classification": "U",
            "LaunchYear": "14",
            "LaunchNumber": "050",
            "PieceOfLaunch": "A",
            "EpochYear": "24",
            "EpochDay": 277.96363192,
            "FirstDerivativeMeanMotion": -5e-07,
            "SecondDerivativeMeanMotion": "00000+0",
            "BSTAR": "00000+0",
            "SetNumber": "999",
            "Inclination": 49.5478,
            "RAAN": 298.6849,
            "Eccentricity": 0.1613849,
            "ArgumentOfPerigee": 155.5076,
            "MeanAnomaly": 213.1118,
            "MeanMotion": 1.85519659,
            "RevolutionNumber": "6679"
        },
        {
            "Name": "GSAT0202 (GALILEO 6)",
            "Line1": "1 40129U 14050B   24279.29950053 -.00000041  00000+0  00000+0 0  9997",
            "Line2": "2 40129  49.5630 297.7095 1613061 156.3533 211.9899  1.85520356 68950",
            "SatelliteNumber": "40129",
            "Classification": "U",
            "LaunchYear": "14",
            "LaunchNumber": "050",
            "PieceOfLaunch": "B",
            "EpochYear": "24",
            "EpochDay": 279.29950053,
            "FirstDerivativeMeanMotion": -4.1e-07,
            "SecondDerivativeMeanMotion": "00000+0",
            "BSTAR": "00000+0",
            "SetNumber": "999",
            "Inclination": 49.563,
            "RAAN": 297.7095,
            "Eccentricity": 0.1613061,
            "ArgumentOfPerigee": 156.3533,
            "MeanAnomaly": 211.9899,
            "MeanMotion": 1.85520356,
            "RevolutionNumber": "6895"
        },
        {
            "Name": "GSAT0203 (GALILEO 7)",
            "Line1": "1 40544U 15017A   24279.78019066 -.00000086  00000+0  00000+0 0  9995",
            "Line2": "2 40544  56.9192 358.4650 0004922 245.5844 114.4184  1.70476374 59300",
            "SatelliteNumber": "40544",
            "Classification": "U",
            "LaunchYear": "15",
            "LaunchNumber": "017",
            "PieceOfLaunch": "A",
            "EpochYear": "24",
            "EpochDay": 279.78019066,
            "FirstDerivativeMeanMotion": -8.6e-07,
            "SecondDerivativeMeanMotion": "00000+0",
            "BSTAR": "00000+0",
            "SetNumber": "999",
            "Inclination": 56.9192,
            "RAAN": 358.465,
            "Eccentricity": 0.0004922,
            "ArgumentOfPerigee": 245.5844,
            "MeanAnomaly": 114.4184,
            "MeanMotion": 1.70476374,
            "RevolutionNumber": "5930"
        },
        {
            "Name": "GSAT0204 (GALILEO 8)",
            "Line1": "1 40545U 15017B   24280.03469228 -.00000085  00000+0  00000+0 0  9994",
            "Line2": "2 40545  56.9255 358.4740 0004788 231.6250 128.3864  1.70475971 59310",
            "SatelliteNumber": "40545",
            "Classification": "U",
            "LaunchYear": "15",
            "LaunchNumber": "017",
            "PieceOfLaunch": "B",
            "EpochYear": "24",
            "EpochDay": 280.03469228,
            "FirstDerivativeMeanMotion": -8.5e-07,
            "SecondDerivativeMeanMotion": "00000+0",
            "BSTAR": "00000+0",
            "SetNumber": "999",
            "Inclination": 56.9255,
            "RAAN": 358.474,
            "Eccentricity": 0.0004788,
            "ArgumentOfPerigee": 231.625,
            "MeanAnomaly": 128.3864,
            "MeanMotion": 1.70475971,
            "RevolutionNumber": "5931"
        },
        {
            "Name": "GSAT0205 (GALILEO 9)",
            "Line1": "1 40889U 15045A   24279.21618446  .00000010  00000+0  00000+0 0  9999",
            "Line2": "2 40889  55.1729 238.7299 0003967  14.7716 345.2026  1.70473176 56448",
            "SatelliteNumber": "40889",
            "Classification": "U",
            "LaunchYear": "15",
            "LaunchNumber": "045",
            "PieceOfLaunch": "A",
            "EpochYear": "24",
            "EpochDay": 279.21618446,
            "FirstDerivativeMeanMotion": 1e-07,
            "SecondDerivativeMeanMotion": "00000+0",
            "BSTAR": "00000+0",
            "SetNumber": "999",
            "Inclination": 55.1729,
            "RAAN": 238.7299,
            "Eccentricity": 0.0003967,
            "ArgumentOfPerigee": 14.7716,
            "MeanAnomaly": 345.2026,
            "MeanMotion": 1.70473176,
            "RevolutionNumber": "5644"
        },
        {
            "Name": "GSAT0206 (GALILEO 10)",
            "Line1": "1 40890U 15045B   24280.02343052  .00000014  00000+0  00000+0 0  9994",
            "Line2": "2 40890  55.1718 238.7030 0002363 351.8945   8.0689  1.70473114 56484",
            "SatelliteNumber": "40890",
            "Classification": "U",
            "LaunchYear": "15",
            "LaunchNumber": "045",
            "PieceOfLaunch": "B",
            "EpochYear": "24",
            "EpochDay": 280.02343052,
            "FirstDerivativeMeanMotion": 1.4e-07,
            "SecondDerivativeMeanMotion": "00000+0",
            "BSTAR": "00000+0",
            "SetNumber": "999",
            "Inclination": 55.1718,
            "RAAN": 238.703,
            "Eccentricity": 0.0002363,
            "ArgumentOfPerigee": 351.8945,
            "MeanAnomaly": 8.0689,
            "MeanMotion": 1.70473114,
            "RevolutionNumber": "5648"
        },
        {
            "Name": "GSAT0209 (GALILEO 12)",
            "Line1": "1 41174U 15079A   24280.19332710  .00000058  00000+0  00000+0 0  9992",
            "Line2": "2 41174  55.4744 118.2634 0002402 355.9751   4.1042  1.70474213 54803",
            "SatelliteNumber": "41174",
            "Classification": "U",
            "LaunchYear": "15",
            "LaunchNumber": "079",
            "PieceOfLaunch": "A",
            "EpochYear": "24",
            "EpochDay": 280.1933271,
            "FirstDerivativeMeanMotion": 5.8e-07,
            "SecondDerivativeMeanMotion": "00000+0",
            "BSTAR": "00000+0",
            "SetNumber": "999",
            "Inclination": 55.4744,
            "RAAN": 118.2634,
            "Eccentricity": 0.0002402,
            "ArgumentOfPerigee": 355.9751,
            "MeanAnomaly": 4.1042,
            "MeanMotion": 1.70474213,
            "RevolutionNumber": "5480"
        }
    ]
}